C/2018 P5 (PANSTARRS),e,7.2523,216.2390,131.7386,12.80315,0.0215144,0.64244228,16.4559,04/02.0/2021,2000,g 11.0,4.0
# From MPC118841
C/2018 R3 (Lemmon),e,69.7291,324.6407,112.8238,1643,0.0000148,0.99921564,0.0000,06/07.2495/2019,2000,g  9.5,4.0
# From MPC112393
C/2018 R4 (Fuls),e,11.6832,298.4402,345.2882,331.9962,0.0001629,0.99483577,0.0000,03/03.6113/2018,2000,g 14.0,4.0
# From MPC114603
C/2018 R5 (Lemmon),e,103.7481,171.1256,178.0568,22.78570,0.0090617,0.84097120,7.3671,04/02.0/2021,2000,g 11.5,4.0
# From MPEC 2021-FB5
C/2018 U1 (Lemmon),h,11/02.9067/2021,108.2971,75.4804,180.4415,1.001232,4.993207,2000,5.0,4.0
# From MPC114604
C/2018 V1 (Machholz-Fujikawa-Iwamoto),h,12/03.2450/2018,144.0535,128.8783,88.8475,1.000344,0.386411,2000,12.0,4.0
# From MPC115884
C/2018 V2 (ATLAS),e,159.1676,357.0828,318.9497,25.12623,0.0078255,0.90138304,6.7122,04/02.0/2021,2000,g 15.0,4.0
# From MPC114604
P/2018 VN2 (Leonard),e,18.2496,226.5074,138.7458,4.064588,0.1202761,0.47853665,124.0317,04/02.0/2021,2000,g 15.0,4.0
# From MPEC 2021-F20
A/2018 V3,e,164.9782,308.6557,3.5267,122.2359,0.0007293,0.98903326,0.0000,09/08.6832/2019,2000,g 15.7,2.0
# From MPC114604
C/2018 V4 (Africano),e,69.0036,78.3615,359.9398,205.4875,0.0003346,0.98444205,0.0000,03/01.4047/2019,2000,g 12.5,4.0
# From MPC114604
P/2018 V5 (Trujillo-Sheppard),e,10.5858,171.2885,260.6893,8.954110,0.0367850,0.47465768,33.5555,04/02.0/2021,2000,g 12.5,4.0
# From MPEC 2021-F20
C/2018 W1 (Catalina),e,83.2717,233.5963,251.2477,21.70139,0.0097493,0.93730108,6.7396,04/02.0/2021,2000,g 15.5,2.0
# From MPEC 2021-F20
C/2018 W2 (Africano),h,09/05.6268/2019,116.6179,181.8461,157.9758,1.000412,1.455242,2000,9.5,4.0
# From MPEC 2021-F20
C/2018 X2 (Fitzsimmons),e,23.0693,340.8288,162.0516,146.6796,0.0005548,0.98550242,0.0000,07/08.3898/2019,2000,g 12.0,4.0
# From MPC114604
C/2018 X3 (PANSTARRS),e,43.3722,78.9031,359.7513,12.37592,0.0226380,0.78215506,18.6409,04/02.0/2021,2000,g 14.5,4.0
# From MPEC 2021-F20
C/2018 Y1 (Iwamoto),e,160.3992,147.5130,358.0159,140.3109,0.0005930,0.99084272,0.0000,02/06.9880/2019,2000,g 11.5,4.0
# From MPC114605
P/2018 Y2 (Africano),e,11.6826,297.2645,162.3426,7.461160,0.0483609,0.47861656,39.7206,04/02.0/2021,2000,g 11.5,4.0
# From MPC114605
P/2019 A1 (PANSTARRS),e,13.7442,312.3030,150.7801,5.122436,0.0850138,0.56833673,76.8829,04/02.0/2021,2000,g 16.0,4.0
# From MPC114605
P/2019 A2 (ATLAS),e,14.8607,139.4698,324.0437,5.722104,0.0720063,0.38134441,62.1798,04/02.0/2021,2000,g 10.5,4.0
# From MPEC 2021-FB5
P/2019 A3 (PANSTARRS),e,15.3682,31.2991,325.5009,3.146825,0.1765612,0.26562246,171.9066,04/02.0/2021,2000,g 16.0,4.0
# From MPC114605
P/2019 A4 (PANSTARRS),e,13.3196,119.3002,341.8440,2.615431,0.2330179,0.08822954,197.9895,04/02.0/2021,2000,g 15.0,4.0
# From MPEC 2021-F20
C/2019 A5 (PANSTARRS),e,67.5588,146.6273,355.9614,21.57782,0.0098332,0.70699248,6.5246,04/02.0/2021,2000,g  9.5,4.0
# From MPC114605
P/2019 A6 (Lemmon-PANSTARRS),e,33.2315,280.2649,156.2044,5.362327,0.0793732,0.63901102,75.1557,04/02.0/2021,2000,g 16.0,4.0
# From MPC114605
P/2019 A7 (PANSTARRS),e,17.7747,280.5222,119.2498,3.185612,0.1733463,0.16116294,204.7162,04/02.0/2021,2000,g 13.5,4.0
# From MPC115884
P/2019 A8 (PANSTARRS),e,3.2417,127.8308,22.7996,3.334379,0.1618757,0.47188456,145.6383,04/02.0/2021,2000,g 16.0,4.0
# From MPC118842
C/2019 A9 (PANSTARRS),e,84.1783,278.3844,237.9546,39.64069,0.0039490,0.96390626,2.4309,04/02.0/2021,2000,g 15.0,4.0
# From MPC114606
C/2019 B1 (Africano),e,123.3640,290.4348,174.8395,144.9347,0.0005649,0.98898373,0.0000,03/19.6991/2019,2000,g 16.0,4.0
# From MPC115885
P/2019 B2 (Groeller),e,16.8555,176.1933,359.5151,3.867966,0.1295627,0.37302481,85.8295,04/02.0/2021,2000,g 14.5,4.0
# From MPEC 2021-F20
C/2019 B3 (PANSTARRS),h,01/20.1048/2021,66.5363,358.4306,263.9171,1.002337,6.823022,2000,5.5,4.0
# From MPEC 2021-FB5
C/2019 C1 (ATLAS),e,36.0274,212.3874,319.1833,736.5365,0.0000493,0.99106478,0.0000,05/05.5141/2020,2000,g 10.0,4.0
# From MPEC 2021-F20
C/2019 D1 (Flewelling),e,34.0757,231.7142,70.5342,141.8737,0.0005832,0.98886929,0.0000,05/11.8755/2019,2000,g 13.0,4.0
# From MPEC 2021-F20
C/2019 E3 (ATLAS),h,11/12.8084/2023,84.2940,347.2454,280.6184,1.003631,10.314625,2000,2.5,4.0
# From MPEC 2021-FB5
C/2019 F1 (ATLAS-Africano),h,06/22.8312/2021,54.1752,38.7257,251.1241,1.003646,3.595722,2000,5.5,4.0
# From MPEC 2021-F20
C/2019 F2 (ATLAS),e,19.2081,175.6484,11.3809,16.71582,0.0144216,0.86603096,8.2326,04/02.0/2021,2000,g 12.0,4.0
# From MPEC 2021-F20
A/2019 G2,e,159.2066,208.1512,82.6291,646.3103,0.0000600,0.99645565,0.0000,12/09.9688/2019,2000,g 16.5,2.0
# From MPEC 2021-F20
A/2019 G3,e,156.8161,49.7975,161.9097,17.19429,0.0138238,0.83391051,11.7550,04/02.0/2021,2000,g 17.1,2.0
# From MPC118094
A/2019 G4,h,09/16.0792/2018,138.3866,130.4642,287.8821,1.001677,5.858053,2000,13.0,2.0
# From MPC114607
P/2019 GG21 (PANSTARRS),e,6.0840,340.5747,208.5399,7.474158,0.0482348,0.47290954,33.3802,04/02.0/2021,2000,g 12.0,4.0
# From MPEC 2021-F20
C/2019 H1 (NEOWISE),e,104.5671,269.2001,19.3301,239.4507,0.0002660,0.99229043,0.0000,04/27.8243/2019,2000,g 15.5,4.0
# From MPEC 2021-F20
C/2019 J1 (Lemmon),e,24.5506,98.0929,167.7893,69.66062,0.0016952,0.96439920,1.2271,04/02.0/2021,2000,g 12.0,4.0
# From MPEC 2021-F20
C/2019 J2 (Palomar),e,105.1581,25.4848,98.7180,658.7415,0.0000583,0.99737794,0.0000,07/19.7087/2019,2000,g 13.0,4.0
# From MPC117071
C/2019 J3 (ATLAS),h,08/01.9846/2019,131.4102,270.5292,16.5917,1.000335,2.374432,2000,13.5,4.0
# From MPEC 2021-F20
C/2019 JU6 (ATLAS),e,148.3087,21.7528,94.9142,296.2577,0.0001933,0.99309382,0.0000,05/31.8975/2019,2000,g 14.5,4.0
# From MPEC 2021-F20
C/2019 K1 (ATLAS),h,02/12.9933/2020,87.1372,73.3771,265.7139,1.000041,2.012638,2000,10.0,4.0
# From MPEC 2021-F20
C/2019 K4 (Ye),e,105.3012,180.1600,139.7747,1476,0.0000174,0.99846852,0.0000,06/16.2658/2019,2000,g 12.5,4.0
# From MPEC 2021-F20
C/2019 K5 (Young),e,15.3156,177.1555,174.9827,158.6155,0.0004934,0.98716621,0.0000,06/22.8980/2019,2000,g 13.0,4.0
# From MPEC 2021-F20
C/2019 K6 (PANSTARRS),e,132.3794,42.9467,187.6351,1757,0.0000134,0.99776442,0.0000,05/20.2711/2020,2000,g 11.5,4.0
# From MPEC 2021-FB5
C/2019 K7 (Smith),e,103.5420,307.9291,27.3152,60199,0.0000001,0.99992566,0.0000,06/17.0133/2020,2000,g  6.0,4.0
# From MPEC 2021-F20
C/2019 K8 (ATLAS),e,93.2190,291.0452,85.3732,2468,0.0000080,0.99870521,0.0000,07/21.4178/2019,2000,g 11.5,4.0
# From MPEC 2021-F20
C/2019 L1 (PANSTARRS),e,9.9921,254.4146,49.9633,9.837210,0.0319445,0.70604292,19.1547,04/02.0/2021,2000,g 13.5,4.0
# From MPC115886
C/2019 L2 (NEOWISE),e,152.1858,12.5759,18.7502,24.85145,0.0079557,0.93477985,5.8175,04/02.0/2021,2000,g 16.0,4.0
# From MPEC 2021-FB5
C/2019 L3 (ATLAS),h,01/09.6980/2022,48.3657,290.7868,171.6266,1.001063,3.554308,2000,4.5,4.0
# From MPEC 2020-K19
P/2019 LM4 (Palomar),e,36.3889,72.8599,68.3920,5.715645,0.0721284,0.58482749,47.1648,04/02.0/2021,2000,g  9.5,4.0
# From MPC118095
C/2019 LB7 (Kleyna),e,164.2912,3.8999,336.4816,34.70875,0.0048200,0.92844929,3.5530,04/02.0/2021,2000,g 17.0,4.0
# From MPC118843
P/2019 M2 (ATLAS),e,12.2820,307.5969,332.5721,3.026884,0.1871588,0.64827724,121.5345,04/02.0/2021,2000,g 21.2,4.0
# From MPEC 2021-F20
C/2019 M3 (ATLAS),h,01/02.5562/2019,99.4708,154.9030,87.9187,1.001023,2.418883,2000,12.2,4.0
# From MPEC 2021-FB5
C/2019 N1 (ATLAS),e,82.4283,13.5740,193.4465,13971,0.0000006,0.99987799,0.0000,12/01.8054/2020,2000,g  7.5,4.0
# From MPEC 2021-F20
A/2019 O2,e,93.2876,48.3116,129.6622,57.34362,0.0022697,0.83114361,358.3300,04/02.0/2021,2000,g  9.5,2.0
# From MPEC 2021-FB5
C/2019 O3 (Palomar),h,03/08.0210/2021,89.8153,300.3812,60.0521,1.002356,8.819469,2000,3.5,4.0
# From MPEC 2021-F20
A/2019 O4,e,115.0877,354.9153,61.8372,32.88841,0.0052256,0.88916872,2.1787,04/02.0/2021,2000,g 15.5,2.0
# From MPEC 2021-F20
C/2019 Q1 (Lemmon),h,07/20.2344/2020,155.7269,42.4025,56.0474,1.001634,4.997848,2000,8.5,4.0
# From MPC117072
A/2019 Q2,e,159.0213,188.0363,176.2957,57.18943,0.0022789,0.97801851,0.0000,07/22.2486/2019,2000,g 18.0,2.0
# From MPC117072
C/2019 Q3 (PANSTARRS),h,08/21.4186/2018,65.5263,151.3233,152.6968,1.003953,7.254489,2000,8.5,4.0
# From MPC117072
P/2019 S2 (PANSTARRS),e,10.4727,93.1315,216.9007,4.736883,0.0956016,0.20675573,73.6326,04/02.0/2021,2000,g 13.5,4.0
# From MPC118096
P/2019 S3 (PANSTARRS),e,8.6941,150.1599,212.9842,3.414847,0.1561878,0.47098091,91.3302,04/02.0/2021,2000,g 18.3,4.0
# From MPEC 2021-F20
C/2019 S4 (Lemmon),e,92.0266,63.1637,71.3642,234.5675,0.0002743,0.98532606,0.0000,04/07.9522/2020,2000,g 11.0,4.0
# From MPEC 2021-F20
A/2019 T1,e,120.8698,6.9532,91.0377,38.25801,0.0041651,0.88808605,0.3236,04/02.0/2021,2000,g 13.0,2.0
# From MPEC 2021-F20
C/2019 T2 (Lemmon),e,111.4888,155.6424,239.3848,2029,0.0000108,0.99869568,0.0000,04/22.2712/2021,2000,g  9.0,4.0
# From MPEC 2021-F20
C/2019 T3 (ATLAS),e,121.8622,139.5208,112.2790,3309,0.0000052,0.99820290,0.0000,03/02.7278/2021,2000,g  6.8,4.0
# From MPEC 2021-FB5
C/2019 T4 (ATLAS),e,53.6196,199.9506,351.2160,1029,0.0000299,0.99587629,0.0000,06/09.2633/2022,2000,g  5.0,4.0
# From MPC119998
P/2019 T5 (ATLAS),e,33.4298,247.6810,189.5877,8.006045,0.0435088,0.80917421,26.5353,04/02.0/2021,2000,g 15.0,4.0
# From MPC119998
P/2019 T6 (PANSTARRS),e,18.6946,71.2975,328.9068,5.434354,0.0778005,0.62253945,39.7713,04/02.0/2021,2000,g 15.5,4.0
# From MPC118096
P/2019 U4 (PANSTARRS),e,11.6924,200.0168,180.9709,3.520515,0.1492089,0.47552840,83.7884,04/02.0/2021,2000,g 19.0,4.0
# From MPEC 2021-FB5
A/2019 U5,h,03/30.2173/2023,113.5178,2.6496,181.5705,1.000556,3.622361,2000,10.0,2.0
# From MPEC 2021-F20
C/2019 U6 (Lemmon),e,60.9994,235.6981,329.6585,412.7846,0.0001175,0.99778517,0.0000,06/18.8053/2020,2000,g 10.0,4.0
# From MPC119998
C/2019 V1 (Borisov),e,61.8627,83.1999,51.1900,1837,0.0000125,0.99831379,0.0000,07/16.5168/2020,2000,g 11.0,4.0
# From MPEC 2021-FB5
P/2019 V2 (Groeller),e,11.8039,189.1794,336.0133,7.514398,0.0478479,0.33186942,7.8550,04/02.0/2021,2000,g 10.0,4.0
# From MPC119998
